[{"OBJECT_ID":"2012-028A","OBJECT_NAME":"CHINASAT 2A","NORAD_CAT_ID":"38352","OBJECT_TYPE":"PAYLOAD","PERIOD":"1436.112","INCLINATION":"0.0661","APOGEE":"35794.836","PERIGEE":"35778.965","ECCENTRICITY":"0.0001882","MEAN_MOTION":"1.00270699","TLE_LINE1":"1 38352U 12028A   16238.80260811 -.00000320 +00000-0 +00000-0 0  9996","TLE_LINE2":"2 38352 000.0661 278.8491 0001882 347.6479 095.1732 01.00270699015450","LAUNCH_DATE":"2012-05-26","LAUNCH_SITE":"Xichang Space Center, China","OWNER":"PEOPLES REPUBLIC OF CHINA","ORBIT_TYPE":"Geosynchronous","OPERATIONAL_STATUS":"Operational","satInfo":{"lng":52.14660636569868,"lat":-0.7475106462236635,"elevation":-9.304059781623716,"azimuth":262.85339363430126,"range":42719.38950866899,"height":35782.83192735383,"velocity":3.07505027222304},"x":202,"y":-160,"dx":1.886983469945144,"dy":2.428008970505006,"maxAlt":256,"minAlt":256},{"OBJECT_ID":"2012-030B","OBJECT_NAME":"BLOCK DM-SL R/B","NORAD_CAT_ID":"38357","OBJECT_TYPE":"ROCKET BODY","PERIOD":"639.048","INCLINATION":"0.6873","APOGEE":"35632.758","PERIGEE":"763.527","ECCENTRICITY":"0.7094083","MEAN_MOTION":"2.25334974","TLE_LINE1":"1 38357U 12030B   16238.58063311 -.00000034  00000-0  00000+0 0  9996","TLE_LINE2":"2 38357   0.6873 340.1994 7094083 197.8834 110.7311  2.25334974728384","LAUNCH_DATE":"2012-06-01","LAUNCH_SITE":"SEA LAUNCH","OWNER":"SEA LAUNCH DEMO","ORBIT_TYPE":"Highly Elliptical Orbit","OPERATIONAL_STATUS":"N/A, derelict rocket body","satInfo":{"lng":-127.94946585403308,"lat":-0.016100196998725242,"elevation":-8.894788170778861,"azimuth":82.94946585403305,"range":41188.22773593201,"height":34314.76002418995,"velocity":1.836319445680452},"x":-196,"y":151,"dx":-1.1292744291969357,"dy":-1.4480360389666056,"maxAlt":255,"minAlt":4},{"OBJECT_ID":"2012-035B","OBJECT_NAME":"METEOSAT 10 (MSG 3)","NORAD_CAT_ID":"38552","OBJECT_TYPE":"PAYLOAD","PERIOD":"1436.053","INCLINATION":"0.5199","APOGEE":"35795.696","PERIGEE":"35775.778","ECCENTRICITY":"0.0002362","MEAN_MOTION":"1.0027485","TLE_LINE1":"1 38552U 12035B   16239.06984174 -.00000031  00000-0  00000+0 0  9998","TLE_LINE2":"2 38552   0.5199  17.2110 0002362 198.6794 144.0876  1.00274850 15304","LAUNCH_DATE":"2012-07-05","LAUNCH_SITE":"FRENCH GUIANA","OWNER":"EUROPEAN ORGANIZATION FOR THE EXPLOITATION OF METEOROLOGICAL SATELLITES","ORBIT_TYPE":"Geosynchronous","OPERATIONAL_STATUS":"Operational","satInfo":{"lng":13.536094104397456,"lat":-0.44811316047738875,"elevation":-9.010613315762035,"azimuth":301.46390589560247,"range":42693.74633796672,"height":35790.028969086925,"velocity":3.0748885777756265},"x":59,"y":-252,"dx":2.989476370733217,"dy":0.7197018789490331,"maxAlt":256,"minAlt":256},{"OBJECT_ID":"2012-036A","OBJECT_NAME":"SES 5","NORAD_CAT_ID":"38652","OBJECT_TYPE":"PAYLOAD","PERIOD":"1436.098","INCLINATION":"0.0505","APOGEE":"35797.578","PERIGEE":"35775.686","ECCENTRICITY":"0.0002596","MEAN_MOTION":"1.00271657","TLE_LINE1":"1 38652U 12036A   16238.14216155  .00000008  00000-0  00000+0 0  9998","TLE_LINE2":"2 38652   0.0505 277.5198 0002596 257.0127 215.4483  1.00271657 15148","LAUNCH_DATE":"2012-07-09","LAUNCH_SITE":"TYURATAM MISSILE AND SPACE COMPLEX","OWNER":"SOCIÉTÉ EUROPÉENNE DES SATELLITES","ORBIT_TYPE":"Geosynchronous","OPERATIONAL_STATUS":"Operational","satInfo":{"lng":8.393238225864232,"lat":-2.0035065489095474,"elevation":-10.526850844000881,"azimuth":306.6067617741357,"range":42855.69959073109,"height":35782.022227519,"velocity":3.075250433431002},"x":36,"y":-256,"dx":3.042313166922095,"dy":0.4488828607666104,"maxAlt":256,"minAlt":256},{"OBJECT_ID":"2012-040A","OBJECT_NAME":"TIANLIAN 1-03","NORAD_CAT_ID":"38730","OBJECT_TYPE":"PAYLOAD","PERIOD":"1436.061","INCLINATION":"0.144","APOGEE":"35799.547","PERIGEE":"35772.276","ECCENTRICITY":"0.0003234","MEAN_MOTION":"1.00274228","TLE_LINE1":"1 38730U 12040A   16239.18884021  .00000044  00000-0  00000+0 0  9998","TLE_LINE2":"2 38730   0.1440 270.4070 0003234 238.7950 264.1644  1.00274228 15074","LAUNCH_DATE":"2012-07-25","LAUNCH_SITE":"Xichang Space Center, China","OWNER":"PEOPLES REPUBLIC OF CHINA","ORBIT_TYPE":"Geosynchronous","OPERATIONAL_STATUS":"Operational","satInfo":{"lng":10.608470230031616,"lat":-1.7288460660669676,"elevation":-10.261590765047336,"azimuth":304.3915297699684,"range":42816.90010723955,"height":35773.06099037036,"velocity":3.07559206367355},"x":46,"y":-255,"dx":3.023024487789915,"dy":0.5662062242277515,"maxAlt":256,"minAlt":256},{"OBJECT_ID":"2012-043A","OBJECT_NAME":"INTELSAT 20","NORAD_CAT_ID":"38740","OBJECT_TYPE":"PAYLOAD","PERIOD":"1436.093","INCLINATION":"0.0126","APOGEE":"35787.841","PERIGEE":"35785.210","ECCENTRICITY":"3.12e-05","MEAN_MOTION":"1.00272039","TLE_LINE1":"1 38740U 12043A   16236.88585002 -.00000048 +00000-0 +00000-0 0  9999","TLE_LINE2":"2 38740 000.0126 127.8714 0000312 002.8563 229.2719 01.00272039014835","LAUNCH_DATE":"2012-08-02","LAUNCH_SITE":"FRENCH GUIANA","OWNER":"INTERNATIONAL TELECOMMUNICATIONS SATELLITE ORGANIZATION (INTELSAT)","ORBIT_TYPE":"Geosynchronous","OPERATIONAL_STATUS":"Operational","satInfo":{"lng":81.87002223005881,"lat":0.6245165192892199,"elevation":-7.963131626177801,"azimuth":233.12997776994118,"range":42573.78175220566,"height":35787.62580954304,"velocity":3.074637692967603},"x":254,"y":-38,"dx":0.43481281416274525,"dy":3.043736972811057,"maxAlt":256,"minAlt":256},{"OBJECT_ID":"2012-043B","OBJECT_NAME":"HYLAS 2","NORAD_CAT_ID":"38741","OBJECT_TYPE":"PAYLOAD","PERIOD":"1436.067","INCLINATION":"0.0372","APOGEE":"35794.127","PERIGEE":"35777.910","ECCENTRICITY":"0.0001923","MEAN_MOTION":"1.00273847","TLE_LINE1":"1 38741U 12043B   16238.98421257  .00000126  00000-0  00000+0 0  9999","TLE_LINE2":"2 38741   0.0372 290.8572 0001923 235.4917 193.6495  1.00273847 14932","LAUNCH_DATE":"2012-08-02","LAUNCH_SITE":"FRENCH GUIANA","OWNER":"UNITED KINGDOM","ORBIT_TYPE":"Geosynchronous","OPERATIONAL_STATUS":"Operational","satInfo":{"lng":82.79773965699331,"lat":-0.030383327394595285,"elevation":-8.608709927551628,"azimuth":232.20226034300663,"range":42618.951388450085,"height":35760.6597610092,"velocity":3.0756658302553586},"x":254,"y":-34,"dx":0.3856035231283583,"dy":3.051398076677539,"maxAlt":256,"minAlt":256},{"OBJECT_ID":"2012-045A","OBJECT_NAME":"INTELSAT 21","NORAD_CAT_ID":"38749","OBJECT_TYPE":"PAYLOAD","PERIOD":"1436.126","INCLINATION":"0.0137","APOGEE":"35798.945","PERIGEE":"35775.392","ECCENTRICITY":"0.0002793","MEAN_MOTION":"1.00269744","TLE_LINE1":"1 38749U 12045A   16239.23111532 -.00000313  00000-0  00000+0 0  9999","TLE_LINE2":"2 38749   0.0137 155.0327 0002793 356.7599 208.2225  1.00269744 14720","LAUNCH_DATE":"2012-08-19","LAUNCH_SITE":"SEA LAUNCH","OWNER":"INTERNATIONAL TELECOMMUNICATIONS SATELLITE ORGANIZATION (INTELSAT)","ORBIT_TYPE":"Geosynchronous","OPERATIONAL_STATUS":"Operational","satInfo":{"lng":-66.50060006382296,"lat":-0.28525189929164513,"elevation":-8.851620828471736,"azimuth":21.50060006382296,"range":42676.19970873777,"height":35790.3175251178,"velocity":3.074834073006198},"x":-238,"y":-104,"dx":1.2260576915468044,"dy":-2.819820404479478,"maxAlt":256,"minAlt":256},{"OBJECT_ID":"2012-045B","OBJECT_NAME":"BLOCK DM-SL R/B","NORAD_CAT_ID":"38750","OBJECT_TYPE":"ROCKET BODY","PERIOD":"609.667","INCLINATION":"0.5405","APOGEE":"34581.411","PERIGEE":"296.535","ECCENTRICITY":"0.7197531","MEAN_MOTION":"2.36194186","TLE_LINE1":"1 38750U 12045B   16238.55740687 +.00000890 +00000-0 +50507-3 0  9994","TLE_LINE2":"2 38750 000.5405 320.8917 7197531 267.7269 042.6962 02.36194186034209","LAUNCH_DATE":"2012-08-19","LAUNCH_SITE":"SEA LAUNCH","OWNER":"SEA LAUNCH DEMO","ORBIT_TYPE":"Highly Elliptical Orbit","OPERATIONAL_STATUS":"N/A, derelict rocket body","satInfo":{"lng":-34.06535638666876,"lat":-0.04814881908689669,"elevation":-10.46920221518916,"azimuth":349.0653563866688,"range":35145.20647871369,"height":28182.009617914628,"velocity":2.498296075464763},"x":-115,"y":-170,"dx":2.0695863974900037,"dy":-1.3993910904414768,"maxAlt":248,"minAlt":1},{"OBJECT_ID":"2012-051A","OBJECT_NAME":"ASTRA 2F","NORAD_CAT_ID":"38778","OBJECT_TYPE":"PAYLOAD","PERIOD":"1436.100","INCLINATION":"0.0937","APOGEE":"35802.803","PERIGEE":"35770.547","ECCENTRICITY":"0.0003825","MEAN_MOTION":"1.00271506","TLE_LINE1":"1 38778U 12051A   16238.99207131  .00000122  00000-0  00000+0 0  9998","TLE_LINE2":"2 38778   0.0937 251.4785 0003825 308.9113 159.5880  1.00271506 14372","LAUNCH_DATE":"2012-09-28","LAUNCH_SITE":"FRENCH GUIANA","OWNER":"SOCIÉTÉ EUROPÉENNE DES SATELLITES","ORBIT_TYPE":"Geosynchronous","OPERATIONAL_STATUS":"Operational","satInfo":{"lng":71.33026254200189,"lat":0.9485139999152901,"elevation":-7.654214713302069,"azimuth":243.6697374579981,"range":42498.02481967712,"height":35746.99476688073,"velocity":3.0766073854830167},"x":243,"y":-84,"dx":0.9848609352316129,"dy":2.914714727492788,"maxAlt":256,"minAlt":256},{"OBJECT_ID":"2012-059A","OBJECT_NAME":"BEIDOU G6","NORAD_CAT_ID":"38953","OBJECT_TYPE":"PAYLOAD","PERIOD":"1436.083","INCLINATION":"1.0517","APOGEE":"35809.188","PERIGEE":"35763.474","ECCENTRICITY":"0.0005421","MEAN_MOTION":"1.00272732","TLE_LINE1":"1 38953U 12059A   16238.92569468 -.00000204 +00000-0 +10000-3 0  9995","TLE_LINE2":"2 38953 001.0517 078.8649 0005421 134.0078 179.0434 01.00272732014121","LAUNCH_DATE":"2012-10-25","LAUNCH_SITE":"Xichang Space Center, China","OWNER":"PEOPLES REPUBLIC OF CHINA","ORBIT_TYPE":"Geosynchronous","OPERATIONAL_STATUS":"Operational","satInfo":{"lng":66.52977294547789,"lat":-0.8712957188221921,"elevation":-9.428553045326952,"azimuth":248.4702270545221,"range":42713.9568330677,"height":35763.64955090412,"velocity":3.0763210575702575},"x":235,"y":-104,"dx":1.2252140099523203,"dy":2.82180826405104,"maxAlt":256,"minAlt":256}]